FENGYUN 4C              
1 67246U 25312A   26061.54313912 -.00000340  00000+0  00000+0 0  9997
2 67246   0.0080 187.3070 0000906 186.3831 115.1417  1.00271828   713
SHIJIAN-29A (SJ-29A)    
1 67302U 25315A   26061.85303547 -.00000082  00000+0  00000+0 0  9993
2 67302   3.1279  97.8585 0002152 304.1732 138.7487  1.00272713   555
SHIJIAN-29B (SJ-29B)    
1 67403U 25315C   26061.85303482 -.00000083  00000+0  00000+0 0  9994
2 67403   3.1278  97.8419 0003698 315.9227 127.1009  1.00272451   626
