[{"OBJECT_NAME":"FENGYUN 4C","OBJECT_ID":"2025-312A","EPOCH":"2026-03-02T13:02:07.219968","MEAN_MOTION":1.00271828,"ECCENTRICITY":9.06e-5,"INCLINATION":0.008,"RA_OF_ASC_NODE":187.307,"ARG_OF_PERICENTER":186.3831,"MEAN_ANOMALY":115.1417,"EPHEMERIS_TYPE":0,"CLASSIFICATION_TYPE":"U","NORAD_CAT_ID":67246,"ELEMENT_SET_NO":999,"REV_AT_EPOCH":71,"BSTAR":0,"MEAN_MOTION_DOT":-3.4e-6,"MEAN_MOTION_DDOT":0},{"OBJECT_NAME":"SHIJIAN-29A (SJ-29A)","OBJECT_ID":"2025-315A","EPOCH":"2026-03-02T20:28:22.264608","MEAN_MOTION":1.00272713,"ECCENTRICITY":0.0002152,"INCLINATION":3.1279,"RA_OF_ASC_NODE":97.8585,"ARG_OF_PERICENTER":304.1732,"MEAN_ANOMALY":138.7487,"EPHEMERIS_TYPE":0,"CLASSIFICATION_TYPE":"U","NORAD_CAT_ID":67302,"ELEMENT_SET_NO":999,"REV_AT_EPOCH":55,"BSTAR":0,"MEAN_MOTION_DOT":-8.2e-7,"MEAN_MOTION_DDOT":0},{"OBJECT_NAME":"SHIJIAN-29B (SJ-29B)","OBJECT_ID":"2025-315C","EPOCH":"2026-03-02T20:28:22.208448","MEAN_MOTION":1.00272451,"ECCENTRICITY":0.0003698,"INCLINATION":3.1278,"RA_OF_ASC_NODE":97.8419,"ARG_OF_PERICENTER":315.9227,"MEAN_ANOMALY":127.1009,"EPHEMERIS_TYPE":0,"CLASSIFICATION_TYPE":"U","NORAD_CAT_ID":67403,"ELEMENT_SET_NO":999,"REV_AT_EPOCH":62,"BSTAR":0,"MEAN_MOTION_DOT":-8.3e-7,"MEAN_MOTION_DDOT":0}]
